[{"OBJECT_NAME":"OBJECT L","OBJECT_ID":"2024-205L","EPOCH":"2026-03-07T03:22:40.585728","MEAN_MOTION":15.10822925,"ECCENTRICITY":0.00547724,"INCLINATION":97.4213,"RA_OF_ASC_NODE":140.2188,"ARG_OF_PERICENTER":346.2042,"MEAN_ANOMALY":13.7688,"EPHEMERIS_TYPE":0,"CLASSIFICATION_TYPE":"U","NORAD_CAT_ID":61904,"ELEMENT_SET_NO":999,"REV_AT_EPOCH":7282,"BSTAR":0.00079283043,"MEAN_MOTION_DOT":0.00013606,"MEAN_MOTION_DDOT":0},{"OBJECT_NAME":"SUPERVIEW NEO-2 04","OBJECT_ID":"2024-218C","EPOCH":"2026-03-09T13:29:09.194208","MEAN_MOTION":15.1971885,"ECCENTRICITY":0.0001369,"INCLINATION":97.4396,"RA_OF_ASC_NODE":77.3157,"ARG_OF_PERICENTER":109.3587,"MEAN_ANOMALY":250.7796,"EPHEMERIS_TYPE":0,"CLASSIFICATION_TYPE":"U","NORAD_CAT_ID":62080,"ELEMENT_SET_NO":999,"REV_AT_EPOCH":7131,"BSTAR":0.00019862,"MEAN_MOTION_DOT":4.175e-5,"MEAN_MOTION_DDOT":0}]
